{
  "type": "FeatureCollection",
  "features": [
    {
      "type": "Feature",
      "id": "123745",
      "properties": {
        "shape_id": "123745",
        "geometry_role": "scheduled_service_shape_not_surveyed_guideway",
        "active_on_selected_service_date": true
      },
      "geometry": {
        "type": "LineString",
        "coordinates": [
          [
            -80.195853,
            25.789319
          ],
          [
            -80.194209,
            25.789363
          ],
          [
            -80.194027,
            25.789362
          ],
          [
            -80.193851,
            25.789346
          ],
          [
            -80.191518,
            25.789438
          ],
          [
            -80.190777,
            25.789461
          ],
          [
            -80.190529,
            25.789459
          ],
          [
            -80.188798,
            25.78949
          ],
          [
            -80.188624,
            25.789482
          ],
          [
            -80.188513,
            25.789469
          ],
          [
            -80.188381,
            25.789459
          ],
          [
            -80.187057,
            25.789478
          ],
          [
            -80.186964,
            25.789478
          ],
          [
            -80.186872,
            25.789465
          ],
          [
            -80.186809,
            25.789446
          ],
          [
            -80.186743,
            25.789412
          ],
          [
            -80.186694,
            25.789361
          ],
          [
            -80.186647,
            25.789275
          ],
          [
            -80.186626,
            25.789199
          ],
          [
            -80.186556,
            25.787464
          ],
          [
            -80.186542,
            25.786834
          ],
          [
            -80.186545,
            25.786736
          ],
          [
            -80.186556,
            25.786691
          ],
          [
            -80.18658,
            25.786629
          ],
          [
            -80.186604,
            25.786586
          ],
          [
            -80.186644,
            25.786538
          ],
          [
            -80.186689,
            25.786498
          ],
          [
            -80.186785,
            25.786441
          ],
          [
            -80.188248,
            25.785792
          ],
          [
            -80.188703,
            25.785601
          ],
          [
            -80.188787,
            25.785583
          ],
          [
            -80.188898,
            25.785576
          ],
          [
            -80.189143,
            25.785592
          ],
          [
            -80.189291,
            25.7856
          ],
          [
            -80.189439,
            25.785606
          ],
          [
            -80.18956,
            25.785604
          ],
          [
            -80.190447,
            25.785521
          ],
          [
            -80.1906,
            25.785495
          ],
          [
            -80.190693,
            25.785467
          ],
          [
            -80.190743,
            25.785439
          ],
          [
            -80.190788,
            25.785398
          ],
          [
            -80.190828,
            25.785346
          ],
          [
            -80.190852,
            25.785293
          ],
          [
            -80.190863,
            25.785236
          ],
          [
            -80.190864,
            25.78516
          ],
          [
            -80.190846,
            25.785076
          ],
          [
            -80.190763,
            25.784768
          ],
          [
            -80.190725,
            25.784588
          ],
          [
            -80.19069,
            25.784323
          ],
          [
            -80.190664,
            25.783539
          ],
          [
            -80.190593,
            25.781559
          ],
          [
            -80.190514,
            25.779594
          ],
          [
            -80.190515,
            25.77952
          ],
          [
            -80.19051,
            25.77945
          ],
          [
            -80.190494,
            25.77939
          ],
          [
            -80.190482,
            25.779344
          ],
          [
            -80.19048,
            25.779284
          ],
          [
            -80.19049,
            25.77922
          ],
          [
            -80.190509,
            25.779169
          ],
          [
            -80.190548,
            25.779113
          ],
          [
            -80.190606,
            25.779019
          ],
          [
            -80.19162,
            25.778952
          ],
          [
            -80.192587,
            25.778926
          ],
          [
            -80.192885,
            25.778927
          ],
          [
            -80.193202,
            25.778946
          ],
          [
            -80.193495,
            25.778947
          ],
          [
            -80.193784,
            25.778928
          ],
          [
            -80.194027,
            25.778909
          ],
          [
            -80.194257,
            25.778893
          ],
          [
            -80.194532,
            25.778866
          ],
          [
            -80.194881,
            25.778834
          ],
          [
            -80.195628,
            25.778814
          ],
          [
            -80.195757,
            25.778802
          ],
          [
            -80.195932,
            25.778736
          ],
          [
            -80.196033,
            25.778658
          ],
          [
            -80.196112,
            25.778567
          ],
          [
            -80.196167,
            25.778435
          ],
          [
            -80.196073,
            25.775412
          ]
        ]
      }
    },
    {
      "type": "Feature",
      "id": "123746",
      "properties": {
        "shape_id": "123746",
        "geometry_role": "scheduled_service_shape_not_surveyed_guideway",
        "active_on_selected_service_date": true
      },
      "geometry": {
        "type": "LineString",
        "coordinates": [
          [
            -80.192394,
            25.760355
          ],
          [
            -80.19326,
            25.760534
          ],
          [
            -80.193461,
            25.760563
          ],
          [
            -80.193599,
            25.760564
          ],
          [
            -80.193796,
            25.760563
          ],
          [
            -80.194014,
            25.760556
          ],
          [
            -80.194135,
            25.760571
          ],
          [
            -80.194811,
            25.760551
          ],
          [
            -80.194898,
            25.760556
          ],
          [
            -80.194963,
            25.760581
          ],
          [
            -80.195016,
            25.760609
          ],
          [
            -80.195058,
            25.760653
          ],
          [
            -80.195089,
            25.760696
          ],
          [
            -80.195118,
            25.760763
          ],
          [
            -80.195131,
            25.760827
          ],
          [
            -80.195153,
            25.76148
          ],
          [
            -80.195167,
            25.761661
          ],
          [
            -80.19518,
            25.761771
          ],
          [
            -80.195203,
            25.761884
          ],
          [
            -80.19522,
            25.762005
          ],
          [
            -80.195258,
            25.762997
          ],
          [
            -80.195255,
            25.763085
          ],
          [
            -80.195247,
            25.763142
          ],
          [
            -80.19522,
            25.763223
          ],
          [
            -80.195159,
            25.763302
          ],
          [
            -80.195047,
            25.763392
          ],
          [
            -80.194944,
            25.763425
          ],
          [
            -80.194839,
            25.763441
          ],
          [
            -80.19296,
            25.763498
          ],
          [
            -80.192868,
            25.763511
          ],
          [
            -80.192783,
            25.763544
          ],
          [
            -80.192723,
            25.763585
          ],
          [
            -80.192664,
            25.763651
          ],
          [
            -80.192635,
            25.763727
          ],
          [
            -80.19261,
            25.763816
          ],
          [
            -80.192483,
            25.7643
          ],
          [
            -80.192456,
            25.764429
          ],
          [
            -80.192409,
            25.764665
          ],
          [
            -80.192122,
            25.765783
          ],
          [
            -80.192046,
            25.766062
          ],
          [
            -80.192041,
            25.766122
          ],
          [
            -80.192051,
            25.766227
          ],
          [
            -80.192079,
            25.766356
          ],
          [
            -80.192101,
            25.766495
          ],
          [
            -80.192117,
            25.766617
          ],
          [
            -80.192146,
            25.767319
          ],
          [
            -80.192173,
            25.767565
          ],
          [
            -80.192185,
            25.767747
          ],
          [
            -80.192221,
            25.768733
          ],
          [
            -80.19223,
            25.768896
          ],
          [
            -80.192237,
            25.769018
          ],
          [
            -80.192273,
            25.769603
          ],
          [
            -80.192283,
            25.769732
          ],
          [
            -80.192303,
            25.769837
          ],
          [
            -80.192336,
            25.769959
          ],
          [
            -80.192362,
            25.770052
          ],
          [
            -80.192406,
            25.770182
          ],
          [
            -80.192482,
            25.770429
          ],
          [
            -80.192496,
            25.770474
          ],
          [
            -80.192513,
            25.770561
          ],
          [
            -80.192527,
            25.770641
          ],
          [
            -80.192601,
            25.771584
          ],
          [
            -80.192594,
            25.771653
          ],
          [
            -80.192577,
            25.771704
          ],
          [
            -80.19256,
            25.771744
          ],
          [
            -80.192532,
            25.77178
          ],
          [
            -80.192499,
            25.77181
          ],
          [
            -80.192446,
            25.771839
          ],
          [
            -80.1924,
            25.771851
          ],
          [
            -80.192346,
            25.771848
          ],
          [
            -80.192211,
            25.771836
          ],
          [
            -80.191945,
            25.77181
          ],
          [
            -80.191863,
            25.771804
          ],
          [
            -80.191744,
            25.771808
          ],
          [
            -80.19096,
            25.771835
          ],
          [
            -80.190666,
            25.77184
          ],
          [
            -80.190641,
            25.771837
          ],
          [
            -80.190543,
            25.771826
          ],
          [
            -80.190451,
            25.771814
          ],
          [
            -80.190385,
            25.771787
          ],
          [
            -80.190301,
            25.77176
          ],
          [
            -80.190222,
            25.771736
          ],
          [
            -80.190143,
            25.771721
          ],
          [
            -80.190064,
            25.771714
          ],
          [
            -80.188856,
            25.771755
          ],
          [
            -80.187682,
            25.771791
          ],
          [
            -80.187587,
            25.771803
          ],
          [
            -80.187505,
            25.771833
          ],
          [
            -80.187431,
            25.771876
          ],
          [
            -80.187378,
            25.771928
          ],
          [
            -80.18734,
            25.77198
          ],
          [
            -80.187322,
            25.772026
          ],
          [
            -80.187311,
            25.772088
          ],
          [
            -80.187316,
            25.772429
          ],
          [
            -80.187333,
            25.773097
          ],
          [
            -80.187352,
            25.773494
          ],
          [
            -80.18738,
            25.773833
          ],
          [
            -80.187405,
            25.774259
          ],
          [
            -80.187436,
            25.774829
          ],
          [
            -80.187446,
            25.774911
          ],
          [
            -80.187468,
            25.774988
          ],
          [
            -80.187512,
            25.775091
          ],
          [
            -80.187542,
            25.775141
          ],
          [
            -80.187599,
            25.775193
          ],
          [
            -80.187657,
            25.775225
          ],
          [
            -80.187737,
            25.775253
          ],
          [
            -80.187814,
            25.775263
          ],
          [
            -80.187929,
            25.775265
          ],
          [
            -80.189186,
            25.775223
          ],
          [
            -80.189529,
            25.775218
          ],
          [
            -80.189637,
            25.77523
          ],
          [
            -80.189707,
            25.775264
          ],
          [
            -80.189764,
            25.77531
          ],
          [
            -80.189802,
            25.775358
          ],
          [
            -80.189834,
            25.77543
          ],
          [
            -80.189845,
            25.77553
          ],
          [
            -80.189888,
            25.776613
          ],
          [
            -80.189897,
            25.777129
          ],
          [
            -80.189908,
            25.777406
          ],
          [
            -80.189937,
            25.777926
          ],
          [
            -80.189969,
            25.778452
          ],
          [
            -80.189978,
            25.778566
          ],
          [
            -80.19,
            25.778654
          ],
          [
            -80.190024,
            25.778714
          ],
          [
            -80.190057,
            25.778752
          ],
          [
            -80.190209,
            25.778871
          ],
          [
            -80.190371,
            25.778981
          ],
          [
            -80.190436,
            25.779007
          ],
          [
            -80.190526,
            25.779021
          ],
          [
            -80.190606,
            25.779019
          ],
          [
            -80.19162,
            25.778952
          ],
          [
            -80.192587,
            25.778926
          ],
          [
            -80.192885,
            25.778927
          ],
          [
            -80.193202,
            25.778946
          ],
          [
            -80.193495,
            25.778947
          ],
          [
            -80.193784,
            25.778928
          ],
          [
            -80.194027,
            25.778909
          ],
          [
            -80.194257,
            25.778893
          ],
          [
            -80.194532,
            25.778866
          ],
          [
            -80.194881,
            25.778834
          ],
          [
            -80.195628,
            25.778814
          ],
          [
            -80.195757,
            25.778802
          ],
          [
            -80.195932,
            25.778736
          ],
          [
            -80.196033,
            25.778658
          ],
          [
            -80.196112,
            25.778567
          ],
          [
            -80.196167,
            25.778435
          ],
          [
            -80.196073,
            25.775412
          ]
        ]
      }
    },
    {
      "type": "Feature",
      "id": "123747",
      "properties": {
        "shape_id": "123747",
        "geometry_role": "scheduled_service_shape_not_surveyed_guideway",
        "active_on_selected_service_date": true
      },
      "geometry": {
        "type": "LineString",
        "coordinates": [
          [
            -80.196167,
            25.778435
          ],
          [
            -80.196073,
            25.775412
          ],
          [
            -80.195975,
            25.773684
          ],
          [
            -80.195976,
            25.773551
          ],
          [
            -80.195995,
            25.773456
          ],
          [
            -80.196008,
            25.773411
          ],
          [
            -80.196038,
            25.773348
          ],
          [
            -80.196197,
            25.773113
          ],
          [
            -80.196236,
            25.773049
          ],
          [
            -80.196257,
            25.772984
          ],
          [
            -80.196261,
            25.772911
          ],
          [
            -80.196255,
            25.772845
          ],
          [
            -80.196239,
            25.772799
          ],
          [
            -80.196213,
            25.772745
          ],
          [
            -80.19618,
            25.772706
          ],
          [
            -80.196132,
            25.772673
          ],
          [
            -80.196078,
            25.772649
          ],
          [
            -80.195999,
            25.772621
          ],
          [
            -80.195765,
            25.772515
          ],
          [
            -80.195375,
            25.772302
          ],
          [
            -80.19519,
            25.772247
          ],
          [
            -80.194881,
            25.772171
          ],
          [
            -80.194585,
            25.772126
          ],
          [
            -80.194142,
            25.772068
          ],
          [
            -80.193181,
            25.771932
          ],
          [
            -80.192854,
            25.7719
          ],
          [
            -80.1924,
            25.771851
          ],
          [
            -80.192346,
            25.771848
          ],
          [
            -80.192211,
            25.771836
          ],
          [
            -80.191945,
            25.77181
          ],
          [
            -80.191863,
            25.771804
          ],
          [
            -80.191744,
            25.771808
          ],
          [
            -80.19096,
            25.771835
          ],
          [
            -80.190666,
            25.77184
          ],
          [
            -80.190641,
            25.771837
          ],
          [
            -80.190543,
            25.771826
          ],
          [
            -80.190451,
            25.771814
          ],
          [
            -80.190385,
            25.771787
          ],
          [
            -80.190301,
            25.77176
          ],
          [
            -80.190222,
            25.771736
          ],
          [
            -80.190143,
            25.771721
          ],
          [
            -80.190064,
            25.771714
          ],
          [
            -80.188856,
            25.771755
          ],
          [
            -80.187682,
            25.771791
          ],
          [
            -80.187587,
            25.771803
          ],
          [
            -80.187505,
            25.771833
          ],
          [
            -80.187431,
            25.771876
          ],
          [
            -80.187378,
            25.771928
          ],
          [
            -80.18734,
            25.77198
          ],
          [
            -80.187322,
            25.772026
          ],
          [
            -80.187311,
            25.772088
          ],
          [
            -80.187316,
            25.772429
          ],
          [
            -80.187333,
            25.773097
          ],
          [
            -80.187352,
            25.773494
          ],
          [
            -80.18738,
            25.773833
          ],
          [
            -80.187405,
            25.774259
          ],
          [
            -80.187436,
            25.774829
          ],
          [
            -80.187446,
            25.774911
          ],
          [
            -80.187468,
            25.774988
          ],
          [
            -80.187512,
            25.775091
          ],
          [
            -80.187542,
            25.775141
          ],
          [
            -80.187599,
            25.775193
          ],
          [
            -80.187657,
            25.775225
          ],
          [
            -80.187737,
            25.775253
          ],
          [
            -80.187814,
            25.775263
          ],
          [
            -80.187929,
            25.775265
          ],
          [
            -80.189186,
            25.775223
          ],
          [
            -80.189529,
            25.775218
          ],
          [
            -80.189637,
            25.77523
          ],
          [
            -80.189707,
            25.775264
          ],
          [
            -80.189764,
            25.77531
          ],
          [
            -80.189802,
            25.775358
          ],
          [
            -80.189834,
            25.77543
          ],
          [
            -80.189845,
            25.77553
          ],
          [
            -80.189888,
            25.776613
          ],
          [
            -80.189897,
            25.777129
          ],
          [
            -80.189908,
            25.777406
          ],
          [
            -80.189937,
            25.777926
          ],
          [
            -80.189969,
            25.778452
          ],
          [
            -80.189978,
            25.778566
          ],
          [
            -80.19,
            25.778654
          ],
          [
            -80.190024,
            25.778714
          ],
          [
            -80.190057,
            25.778752
          ],
          [
            -80.190209,
            25.778871
          ],
          [
            -80.190218,
            25.778906
          ],
          [
            -80.190239,
            25.778947
          ],
          [
            -80.190446,
            25.779405
          ],
          [
            -80.190514,
            25.779594
          ],
          [
            -80.190593,
            25.781559
          ],
          [
            -80.190664,
            25.783539
          ],
          [
            -80.19069,
            25.784323
          ],
          [
            -80.190725,
            25.784588
          ],
          [
            -80.190763,
            25.784768
          ],
          [
            -80.190846,
            25.785076
          ],
          [
            -80.190864,
            25.78516
          ],
          [
            -80.190863,
            25.785236
          ],
          [
            -80.190852,
            25.785293
          ],
          [
            -80.190828,
            25.785346
          ],
          [
            -80.190788,
            25.785398
          ],
          [
            -80.190743,
            25.785439
          ],
          [
            -80.190693,
            25.785467
          ],
          [
            -80.1906,
            25.785495
          ],
          [
            -80.190447,
            25.785521
          ],
          [
            -80.18956,
            25.785604
          ],
          [
            -80.189439,
            25.785606
          ],
          [
            -80.189291,
            25.7856
          ],
          [
            -80.189143,
            25.785592
          ],
          [
            -80.188898,
            25.785576
          ],
          [
            -80.188787,
            25.785583
          ],
          [
            -80.188703,
            25.785601
          ],
          [
            -80.188248,
            25.785792
          ],
          [
            -80.186785,
            25.786441
          ],
          [
            -80.186689,
            25.786498
          ],
          [
            -80.186644,
            25.786538
          ],
          [
            -80.186604,
            25.786586
          ],
          [
            -80.18658,
            25.786629
          ],
          [
            -80.186556,
            25.786691
          ],
          [
            -80.186545,
            25.786736
          ],
          [
            -80.186542,
            25.786834
          ],
          [
            -80.186556,
            25.787464
          ],
          [
            -80.186626,
            25.789199
          ],
          [
            -80.186647,
            25.789275
          ],
          [
            -80.186694,
            25.789361
          ],
          [
            -80.186743,
            25.789412
          ],
          [
            -80.186809,
            25.789446
          ],
          [
            -80.186872,
            25.789465
          ],
          [
            -80.186964,
            25.789478
          ],
          [
            -80.187057,
            25.789478
          ],
          [
            -80.188381,
            25.789459
          ],
          [
            -80.188513,
            25.789469
          ],
          [
            -80.188624,
            25.789482
          ],
          [
            -80.188798,
            25.78949
          ],
          [
            -80.190529,
            25.789459
          ],
          [
            -80.190777,
            25.789461
          ],
          [
            -80.191518,
            25.789438
          ],
          [
            -80.193851,
            25.789346
          ],
          [
            -80.194027,
            25.789362
          ],
          [
            -80.194209,
            25.789363
          ],
          [
            -80.195853,
            25.789319
          ]
        ]
      }
    },
    {
      "type": "Feature",
      "id": "123748",
      "properties": {
        "shape_id": "123748",
        "geometry_role": "scheduled_service_shape_not_surveyed_guideway",
        "active_on_selected_service_date": true
      },
      "geometry": {
        "type": "LineString",
        "coordinates": [
          [
            -80.196167,
            25.778435
          ],
          [
            -80.196073,
            25.775412
          ],
          [
            -80.195975,
            25.773684
          ],
          [
            -80.195976,
            25.773551
          ],
          [
            -80.195995,
            25.773456
          ],
          [
            -80.196008,
            25.773411
          ],
          [
            -80.196038,
            25.773348
          ],
          [
            -80.196197,
            25.773113
          ],
          [
            -80.196236,
            25.773049
          ],
          [
            -80.196257,
            25.772984
          ],
          [
            -80.196261,
            25.772911
          ],
          [
            -80.196255,
            25.772845
          ],
          [
            -80.196239,
            25.772799
          ],
          [
            -80.196213,
            25.772745
          ],
          [
            -80.19618,
            25.772706
          ],
          [
            -80.196132,
            25.772673
          ],
          [
            -80.196078,
            25.772649
          ],
          [
            -80.195999,
            25.772621
          ],
          [
            -80.195765,
            25.772515
          ],
          [
            -80.195375,
            25.772302
          ],
          [
            -80.19519,
            25.772247
          ],
          [
            -80.194881,
            25.772171
          ],
          [
            -80.194585,
            25.772126
          ],
          [
            -80.194142,
            25.772068
          ],
          [
            -80.193181,
            25.771932
          ],
          [
            -80.192854,
            25.7719
          ],
          [
            -80.1924,
            25.771851
          ],
          [
            -80.192446,
            25.771839
          ],
          [
            -80.192499,
            25.77181
          ],
          [
            -80.192532,
            25.77178
          ],
          [
            -80.19256,
            25.771744
          ],
          [
            -80.192577,
            25.771704
          ],
          [
            -80.192594,
            25.771653
          ],
          [
            -80.192601,
            25.771584
          ],
          [
            -80.192527,
            25.770641
          ],
          [
            -80.192513,
            25.770561
          ],
          [
            -80.192496,
            25.770474
          ],
          [
            -80.192482,
            25.770429
          ],
          [
            -80.192406,
            25.770182
          ],
          [
            -80.192362,
            25.770052
          ],
          [
            -80.192336,
            25.769959
          ],
          [
            -80.192303,
            25.769837
          ],
          [
            -80.192283,
            25.769732
          ],
          [
            -80.192273,
            25.769603
          ],
          [
            -80.192237,
            25.769018
          ],
          [
            -80.19223,
            25.768896
          ],
          [
            -80.192221,
            25.768733
          ],
          [
            -80.192185,
            25.767747
          ],
          [
            -80.192173,
            25.767565
          ],
          [
            -80.192146,
            25.767319
          ],
          [
            -80.192117,
            25.766617
          ],
          [
            -80.192101,
            25.766495
          ],
          [
            -80.192079,
            25.766356
          ],
          [
            -80.192051,
            25.766227
          ],
          [
            -80.192041,
            25.766122
          ],
          [
            -80.192046,
            25.766062
          ],
          [
            -80.192122,
            25.765783
          ],
          [
            -80.192409,
            25.764665
          ],
          [
            -80.192456,
            25.764429
          ],
          [
            -80.192483,
            25.7643
          ],
          [
            -80.19261,
            25.763816
          ],
          [
            -80.192635,
            25.763727
          ],
          [
            -80.192664,
            25.763651
          ],
          [
            -80.192723,
            25.763585
          ],
          [
            -80.192783,
            25.763544
          ],
          [
            -80.192868,
            25.763511
          ],
          [
            -80.19296,
            25.763498
          ],
          [
            -80.194839,
            25.763441
          ],
          [
            -80.194944,
            25.763425
          ],
          [
            -80.195047,
            25.763392
          ],
          [
            -80.195159,
            25.763302
          ],
          [
            -80.19522,
            25.763223
          ],
          [
            -80.195247,
            25.763142
          ],
          [
            -80.195255,
            25.763085
          ],
          [
            -80.195258,
            25.762997
          ],
          [
            -80.19522,
            25.762005
          ],
          [
            -80.195203,
            25.761884
          ],
          [
            -80.19518,
            25.761771
          ],
          [
            -80.195167,
            25.761661
          ],
          [
            -80.195153,
            25.76148
          ],
          [
            -80.195131,
            25.760827
          ],
          [
            -80.195118,
            25.760763
          ],
          [
            -80.195089,
            25.760696
          ],
          [
            -80.195058,
            25.760653
          ],
          [
            -80.195016,
            25.760609
          ],
          [
            -80.194963,
            25.760581
          ],
          [
            -80.194898,
            25.760556
          ],
          [
            -80.194811,
            25.760551
          ],
          [
            -80.194135,
            25.760571
          ],
          [
            -80.194014,
            25.760556
          ],
          [
            -80.193796,
            25.760563
          ],
          [
            -80.193599,
            25.760564
          ],
          [
            -80.193461,
            25.760563
          ],
          [
            -80.19326,
            25.760534
          ],
          [
            -80.192394,
            25.760355
          ]
        ]
      }
    },
    {
      "type": "Feature",
      "id": "123750",
      "properties": {
        "shape_id": "123750",
        "geometry_role": "scheduled_service_shape_not_surveyed_guideway",
        "active_on_selected_service_date": true
      },
      "geometry": {
        "type": "LineString",
        "coordinates": [
          [
            -80.187333,
            25.773097
          ],
          [
            -80.187316,
            25.772429
          ],
          [
            -80.187311,
            25.772088
          ],
          [
            -80.187322,
            25.772026
          ],
          [
            -80.18734,
            25.77198
          ],
          [
            -80.187378,
            25.771928
          ],
          [
            -80.187431,
            25.771876
          ],
          [
            -80.187505,
            25.771833
          ],
          [
            -80.187587,
            25.771803
          ],
          [
            -80.187682,
            25.771791
          ],
          [
            -80.188856,
            25.771755
          ],
          [
            -80.190064,
            25.771714
          ],
          [
            -80.190143,
            25.771721
          ],
          [
            -80.190222,
            25.771736
          ],
          [
            -80.190301,
            25.77176
          ],
          [
            -80.190385,
            25.771787
          ],
          [
            -80.190451,
            25.771814
          ],
          [
            -80.190533,
            25.771848
          ],
          [
            -80.190606,
            25.771879
          ],
          [
            -80.190635,
            25.771892
          ],
          [
            -80.190842,
            25.771917
          ],
          [
            -80.19097,
            25.771922
          ],
          [
            -80.191431,
            25.771914
          ],
          [
            -80.191638,
            25.771912
          ],
          [
            -80.191713,
            25.771917
          ],
          [
            -80.191764,
            25.77193
          ],
          [
            -80.191818,
            25.771962
          ],
          [
            -80.191873,
            25.77201
          ],
          [
            -80.19191,
            25.772075
          ],
          [
            -80.191929,
            25.772128
          ],
          [
            -80.191937,
            25.77219
          ],
          [
            -80.191934,
            25.772439
          ],
          [
            -80.191933,
            25.772534
          ],
          [
            -80.191929,
            25.772678
          ],
          [
            -80.191924,
            25.773117
          ],
          [
            -80.191937,
            25.773181
          ],
          [
            -80.191965,
            25.773251
          ],
          [
            -80.192012,
            25.773312
          ],
          [
            -80.19209,
            25.773364
          ],
          [
            -80.192165,
            25.773393
          ],
          [
            -80.192272,
            25.773403
          ],
          [
            -80.192602,
            25.773397
          ],
          [
            -80.194251,
            25.773349
          ],
          [
            -80.195199,
            25.773321
          ],
          [
            -80.195304,
            25.773323
          ],
          [
            -80.195563,
            25.773363
          ],
          [
            -80.195603,
            25.773365
          ],
          [
            -80.195677,
            25.773375
          ],
          [
            -80.195729,
            25.773384
          ],
          [
            -80.195781,
            25.773397
          ],
          [
            -80.195824,
            25.773417
          ],
          [
            -80.195903,
            25.773468
          ],
          [
            -80.195935,
            25.773534
          ],
          [
            -80.195975,
            25.773684
          ],
          [
            -80.196073,
            25.775412
          ],
          [
            -80.196167,
            25.778435
          ]
        ]
      }
    },
    {
      "type": "Feature",
      "id": "123751",
      "properties": {
        "shape_id": "123751",
        "geometry_role": "scheduled_service_shape_not_surveyed_guideway",
        "active_on_selected_service_date": true
      },
      "geometry": {
        "type": "LineString",
        "coordinates": [
          [
            -80.196073,
            25.775412
          ],
          [
            -80.196167,
            25.778435
          ],
          [
            -80.196112,
            25.778567
          ],
          [
            -80.196033,
            25.778658
          ],
          [
            -80.195932,
            25.778736
          ],
          [
            -80.195757,
            25.778802
          ],
          [
            -80.195628,
            25.778814
          ],
          [
            -80.194881,
            25.778834
          ],
          [
            -80.194532,
            25.778866
          ],
          [
            -80.194257,
            25.778893
          ],
          [
            -80.194027,
            25.778909
          ],
          [
            -80.193784,
            25.778928
          ],
          [
            -80.193495,
            25.778947
          ],
          [
            -80.193202,
            25.778946
          ],
          [
            -80.192885,
            25.778927
          ],
          [
            -80.192587,
            25.778926
          ],
          [
            -80.19162,
            25.778952
          ],
          [
            -80.190606,
            25.779019
          ],
          [
            -80.190526,
            25.779021
          ],
          [
            -80.190436,
            25.779007
          ],
          [
            -80.190371,
            25.778981
          ],
          [
            -80.190209,
            25.778871
          ],
          [
            -80.190057,
            25.778752
          ],
          [
            -80.190024,
            25.778714
          ],
          [
            -80.19,
            25.778654
          ],
          [
            -80.189978,
            25.778566
          ],
          [
            -80.189969,
            25.778452
          ],
          [
            -80.189937,
            25.777926
          ],
          [
            -80.189908,
            25.777406
          ],
          [
            -80.189897,
            25.777129
          ],
          [
            -80.189888,
            25.776613
          ],
          [
            -80.189845,
            25.77553
          ],
          [
            -80.189834,
            25.77543
          ],
          [
            -80.189802,
            25.775358
          ],
          [
            -80.189764,
            25.77531
          ],
          [
            -80.189707,
            25.775264
          ],
          [
            -80.189637,
            25.77523
          ],
          [
            -80.189529,
            25.775218
          ],
          [
            -80.189186,
            25.775223
          ],
          [
            -80.187929,
            25.775265
          ],
          [
            -80.187814,
            25.775263
          ],
          [
            -80.187737,
            25.775253
          ],
          [
            -80.187657,
            25.775225
          ],
          [
            -80.187599,
            25.775193
          ],
          [
            -80.187542,
            25.775141
          ],
          [
            -80.187512,
            25.775091
          ],
          [
            -80.187468,
            25.774988
          ],
          [
            -80.187446,
            25.774911
          ],
          [
            -80.187436,
            25.774829
          ],
          [
            -80.187405,
            25.774259
          ],
          [
            -80.18738,
            25.773833
          ],
          [
            -80.187352,
            25.773494
          ],
          [
            -80.187333,
            25.773097
          ]
        ]
      }
    }
  ]
}
