{
  "type": "FeatureCollection",
  "schema_version": "miami-network-half-mile-union/1.0",
  "built_on": "2026-09-14",
  "config_sha256": "ecfc00408d13e70259b76f11804bd584d3e4de9fac7d19a347f3e49c66c15f36",
  "upstream": {
    "stage": "station_master",
    "manifest": "build_manifest.json",
    "manifest_sha256": "ee1760017b797c4f20a3afe1ef27921648e347b116f7478e52b8c56b20f315be",
    "station_master_sha256": "50db7b67707a5022915e00eaa48d32be8d57b7f73df067dba6fccb46bf92eed4",
    "study_window_sha256": "b9ec497124aeb49d46352856718aaa35cf17801298f03afc3c92b0f0ff905231",
    "zoning_raw_sha256": "f8569d030bee2eb30af233c2586260012b8d4c100209904fcd2e7316644283b2"
  },
  "features": [
    {
      "type": "Feature",
      "geometry": {
        "type": "Polygon",
        "coordinates": [
          [
            [
              -80.18490104063292,
              25.759624359127866
            ],
            [
              -80.18492395557617,
              25.759447247509666
            ],
            [
              -80.18495166342157,
              25.759270698468686
            ],
            [
              -80.18498414745834,
              25.759094818348263
            ],
            [
              -80.18502138809903,
              25.75891971308838
            ],
            [
              -80.18506336289137,
              25.75874548816184
            ],
            [
              -80.18511004653188,
              25.758572248510703
            ],
            [
              -80.18516141088111,
              25.758400098483172
            ],
            [
              -80.1852174249807,
              25.758229141770688
            ],
            [
              -80.18527805507203,
              25.758059481345455
            ],
            [
              -80.18534326461658,
              25.757891219398513
            ],
            [
              -80.18541301431799,
              25.75772445727813
            ],
            [
              -80.18548726214586,
              25.757559295428788
            ],
            [
              -80.18556596336094,
              25.757395833330698
            ],
            [
              -80.1856490705423,
              25.757234169439897
            ],
            [
              -80.18573653361574,
              25.757074401128953
            ],
            [
              -80.18582829988416,
              25.75691662462833
            ],
            [
              -80.18592431405922,
              25.75676093496844
            ],
            [
              -80.18602451829469,
              25.756607425922425
            ],
            [
              -80.18612885222136,
              25.75645618994971
            ],
            [
              -80.18623725298342,
              25.756307318140287
            ],
            [
              -80.18634965527629,
              25.756160900159895
            ],
            [
              -80.18646599138603,
              25.756017024196026
            ],
            [
              -80.18658619123016,
              25.75587577690484
            ],
            [
              -80.1867101823998,
              25.755737243358965
            ],
            [
              -80.1868378902034,
              25.75560150699629
            ],
            [
              -80.18696923771171,
              25.755468649569714
            ],
            [
              -80.18710414580406,
              25.75533875109795
            ],
            [
              -80.18724253321611,
              25.755211889817314
            ],
            [
              -80.1873843165888,
              25.755088142134664
            ],
            [
              -80.1875294105185,
              25.754967582581347
            ],
            [
              -80.18767772760846,
              25.75485028376838
            ],
            [
              -80.18782917852153,
              25.754736316342697
            ],
            [
              -80.18798367203385,
              25.754625748944626
            ],
            [
              -80.18814111508988,
              25.75451864816658
            ],
            [
              -80.1883014128584,
              25.754415078512945
            ],
            [
              -80.18846446878959,
              25.754315102361268
            ],
            [
              -80.18863018467326,
              25.75421877992467
            ],
            [
              -80.1887984606979,
              25.754126169215652
            ],
            [
              -80.18896919551078,
              25.75403732601112
            ],
            [
              -80.18914228627905,
              25.75395230381882
            ],
            [
              -80.18931762875157,
              25.753871153845175
            ],
            [
              -80.18949511732178,
              25.75379392496436
            ],
            [
              -80.18967464509115,
              25.75372066368897
            ],
            [
              -80.18985610393362,
              25.75365141414198
            ],
            [
              -80.19003938456072,
              25.753586218030204
            ],
            [
              -80.1902243765873,
              25.75352511461915
            ],
            [
              -80.19041096859802,
              25.753468140709415
            ],
            [
              -80.19059904821437,
              25.753415330614548
            ],
            [
              -80.19078850216245,
              25.753366716140334
            ],
            [
              -80.19097921634098,
              25.753322326565698
            ],
            [
              -80.19117107589011,
              25.753282188625075
            ],
            [
              -80.19136396526054,
              25.7532463264923
            ],
            [
              -80.19155776828303,
              25.75321476176605
            ],
            [
              -80.1917523682384,
              25.753187513456872
            ],
            [
              -80.19194764792769,
              25.753164597975715
            ],
            [
              -80.1921434897428,
              25.753146029124046
            ],
            [
              -80.19233977573727,
              25.753131818085556
            ],
            [
              -80.19253638769716,
              25.753121973419432
            ],
            [
              -80.1927332072124,
              25.75311650105518
            ],
            [
              -80.19293011574791,
              25.753115404289073
            ],
            [
              -80.19312699471499,
              25.753118683782166
            ],
            [
              -80.1933237255427,
              25.75312633755988
            ],
            [
              -80.1935201897493,
              25.75313836101322
            ],
            [
              -80.19371626901344,
              25.753154746901515
            ],
            [
              -80.1939118452455,
              25.753175485356778
            ],
            [
              -80.19410680065856,
              25.753200563889674
            ],
            [
              -80.19430101783945,
              25.75322996739703
            ],
            [
              -80.19449437981925,
              25.75326367817088
            ],
            [
              -80.19468677014385,
              25.75330167590919
            ],
            [
              -80.19487807294391,
              25.753343937728012
            ],
            [
              -80.19506817300477,
              25.753390438175312
            ],
            [
              -80.19525695583566,
              25.753441149246257
            ],
            [
              -80.19544430773868,
              25.75349604040008
            ],
            [
              -80.19563011587728,
              25.75355507857848
            ],
            [
              -80.19581426834411,
              25.75361822822548
            ],
            [
              -80.19599665422848,
              25.753685451308876
            ],
            [
              -80.19617716368302,
              25.753756707343086
            ],
            [
              -80.19635568798991,
              25.753831953413563
            ],
            [
              -80.19653211962628,
              25.753911144202593
            ],
            [
              -80.19670635232899,
              25.75399423201659
            ],
            [
              -80.19687828115852,
              25.754081166814807
            ],
            [
              -80.19704780256227,
              25.754171896239438
            ],
            [
              -80.1972148144368,
              25.754266365647172
            ],
            [
              -80.19737921618943,
              25.75436451814207
            ],
            [
              -80.19754090879866,
              25.754466294609777
            ],
            [
              -80.19769979487394,
              25.7545716337532
            ],
            [
              -80.19785577871423,
              25.7546804721293
            ],
            [
              -80.19800876636567,
              25.75479274418738
            ],
            [
              -80.19815866567816,
              25.75490838230848
            ],
            [
              -80.19830538636083,
              25.755027316846117
            ],
            [
              -80.19844884003646,
              25.75514947616822
            ],
            [
              -80.19858894029467,
              25.75527478670023
            ],
            [
              -80.19872560274402,
              25.75540317296942
            ],
            [
              -80.1988587450628,
              25.755534557650318
            ],
            [
              -80.1989882870486,
              25.75566886161126
            ],
            [
              -80.19911415066677,
              25.75580600396205
            ],
            [
              -80.19923626009721,
              25.755945902102663
            ],
            [
              -80.19935454178021,
              25.75608847177293
            ],
            [
              -80.19946892446077,
              25.756233627103356
            ],
            [
              -80.19957933923142,
              25.75638128066672
            ],
            [
              -80.1996857195739,
              25.756531343530817
            ],
            [
              -80.1997669137351,
              25.7566523084692
            ],
            [
              -80.199920885494,
              25.756749219572157
            ],
            [
              -80.20007977672438,
              25.756854556207436
            ],
            [
              -80.20023576573077,
              25.756963392122056
            ],
            [
              -80.20038875855616,
              25.757075661766795
            ],
            [
              -80.20053866304734,
              25.75719129752415
            ],
            [
              -80.20068538891033,
              25.757310229749073
            ],
            [
              -80.2008288477648,
              25.75743238681088
            ],
            [
              -80.20096895319723,
              25.75755769513637
            ],
            [
              -80.20110562081311,
              25.757686079254146
            ],
            [
              -80.20123876828755,
              25.75781746184004
            ],
            [
              -80.20136831541515,
              25.757951763763646
            ],
            [
              -80.20149418415804,
              25.75808890413601
            ],
            [
              -80.2016162986931,
              25.758228800358278
            ],
            [
              -80.20173458545753,
              25.75837136817145
            ],
            [
              -80.20184897319328,
              25.758516521707147
            ],
            [
              -80.20195939298983,
              25.758664173539238
            ],
            [
              -80.20206577832592,
              25.75881423473656
            ],
            [
              -80.20216806510943,
              25.7589666149164
            ],
            [
              -80.20226619171619,
              25.759121222298972
            ],
            [
              -80.20236009902699,
              25.759277963762646
            ],
            [
              -80.20244973046331,
              25.75943674490002
            ],
            [
              -80.20253503202139,
              25.759597470074798
            ],
            [
              -80.20261595230478,
              25.759760042479353
            ],
            [
              -80.20269244255539,
              25.759924364193036
            ],
            [
              -80.20276445668279,
              25.760090336241145
            ],
            [
              -80.20283195129215,
              25.760257858654498
            ],
            [
              -80.20289488571031,
              25.760426830529685
            ],
            [
              -80.20295322201035,
              25.760597150089808
            ],
            [
              -80.20300692503449,
              25.76076871474575
            ],
            [
              -80.2030559624153,
              25.760941421158027
            ],
            [
              -80.20310030459528,
              25.761115165298936
            ],
            [
              -80.2031399248446,
              25.76128984251529
            ],
            [
              -80.20317479927745,
              25.761465347591397
            ],
            [
              -80.20320490686622,
              25.76164157481243
            ],
            [
              -80.20323022945445,
              25.761818418028138
            ],
            [
              -80.20325075176765,
              25.761995770716744
            ],
            [
              -80.20326646142266,
              25.762173526049136
            ],
            [
              -80.20327734893509,
              25.762351576953147
            ],
            [
              -80.20328340772511,
              25.762529816178144
            ],
            [
              -80.20328463412152,
              25.76270813635956
            ],
            [
              -80.20328102736387,
              25.762886430083604
            ],
            [
              -80.20327258960315,
              25.763064589951927
            ],
            [
              -80.2032593259004,
              25.763242508646353
            ],
            [
              -80.2032412442238,
              25.763420078993523
            ],
            [
              -80.2032183554439,
              25.763597194029412
            ],
            [
              -80.20319067332707,
              25.763773747063826
            ],
            [
              -80.20315821452733,
              25.76394963174465
            ],
            [
              -80.2031209985764,
              25.7641247421219
            ],
            [
              -80.20307904787181,
              25.764298972711583
            ],
            [
              -80.20303238766368,
              25.764472218559227
            ],
            [
              -80.20298104603937,
              25.7646443753031
            ],
            [
              -80.20292505390675,
              25.76481533923713
            ],
            [
              -80.20286444497553,
              25.76498500737334
            ],
            [
              -80.20279925573702,
              25.765153277503938
            ],
            [
              -80.20272952544221,
              25.765320048262836
            ],
            [
              -80.20265529607819,
              25.76548521918682
            ],
            [
              -80.20257661234282,
              25.765648690775983
            ],
            [
              -80.20249352161792,
              25.765810364553733
            ],
            [
              -80.20240607394071,
              25.76597014312612
            ],
            [
              -80.20231432197372,
              25.766127930240522
            ],
            [
              -80.20221832097312,
              25.76628363084362
            ],
            [
              -80.20211812875543,
              25.76643715113873
            ],
            [
              -80.20201380566274,
              25.76658839864226
            ],
            [
              -80.2019054145264,
              25.766737282239475
            ],
            [
              -80.20179302062913,
              25.766883712239384
            ],
            [
              -80.2016766916658,
              25.767027600428797
            ],
            [
              -80.2015564977026,
              25.76716886012552
            ],
            [
              -80.20143251113494,
              25.767307406230522
            ],
            [
              -80.2013048066437,
              25.767443155279256
            ],
            [
              -80.20117346115046,
              25.767576025491966
            ],
            [
              -80.20103855377096,
              25.76770593682295
            ],
            [
              -80.20090016576762,
              25.767832811008823
            ],
            [
              -80.20075838050047,
              25.76795657161566
            ],
            [
              -80.20061328337702,
              25.76807714408506
            ],
            [
              -80.20046496180079,
              25.76819445577913
            ],
            [
              -80.20037322544604,
              25.76826349293859
            ],
            [
              -80.20041566719624,
              25.76832671698232
            ],
            [
              -80.20051379884475,
              25.768481325477975
            ],
            [
              -80.20060771083178,
              25.768638067992608
            ],
            [
              -80.20069734657595,
              25.76879685011821
            ],
            [
              -80.20078265207091,
              25.768957576217883
            ],
            [
              -80.20086357591784,
              25.76912014948344
            ],
            [
              -80.20094006935645,
              25.76928447199372
            ],
            [
              -80.20101208629444,
              25.769450444773536
            ],
            [
              -80.20107958333526,
              25.769617967853275
            ],
            [
              -80.20114251980425,
              25.769786940329126
            ],
            [
              -80.20120085777324,
              25.769957260423823
            ],
            [
              -80.20125456208348,
              25.770128825547946
            ],
            [
              -80.20130360036674,
              25.770301532361703
            ],
            [
              -80.20131554760424,
              25.770348344322873
            ],
            [
              -80.20137122713862,
              25.770391290136068
            ],
            [
              -80.2015179697052,
              25.770510221712154
            ],
            [
              -80.20166144491367,
              25.770632378129896
            ],
            [
              -80.20180156634075,
              25.7707576858165
            ],
            [
              -80.20193824958221,
              25.770886069300953
            ],
            [
              -80.20207141230385,
              25.771017451259464
            ],
            [
              -80.20220097429096,
              25.771151752562027
            ],
            [
              -80.20232685749683,
              25.771288892320054
            ],
            [
              -80.20244898608955,
              25.77142878793508
            ],
            [
              -80.20256728649791,
              25.771571355148463
            ],
            [
              -80.20268168745558,
              25.771716508092204
            ],
            [
              -80.20279212004414,
              25.771864159340538
            ],
            [
              -80.20289851773454,
              25.772014219962635
            ],
            [
              -80.20300081642728,
              25.772166599576153
            ],
            [
              -80.20309895449095,
              25.77232120640166
            ],
            [
              -80.20319287279948,
              25.772477947317835
            ],
            [
              -80.20328251476771,
              25.77263672791764
            ],
            [
              -80.20336782638552,
              25.7727974525651
            ],
            [
              -80.20344875625038,
              25.77296002445291
            ],
            [
              -80.20352525559841,
              25.773124345660733
            ],
            [
              -80.20359727833375,
              25.77329031721418
            ],
            [
              -80.20366478105632,
              25.773457839144374
            ],
            [
              -80.20372772308805,
              25.77362681054819
            ],
            [
              -80.20378606649747,
              25.77379712964902
            ],
            [
              -80.20383977612248,
              25.773968693858045
            ],
            [
              -80.20388881959167,
              25.774141399836033
            ],
            [
              -80.20393316734385,
              25.77431514355556
            ],
            [
              -80.20397279264583,
              25.774489820363684
            ],
            [
              -80.20400767160872,
              25.774665325044968
            ],
            [
              -80.20403778320221,
              25.77484155188483
            ],
            [
              -80.20406310926737,
              25.775018394733245
            ],
            [
              -80.20408363452763,
              25.77519574706866
            ],
            [
              -80.20409934659801,
              25.775373502062166
            ],
            [
              -80.20411023599269,
              25.77555155264183
            ],
            [
              -80.20411629613068,
              25.77572979155719
            ],
            [
              -80.2041175233399,
              25.775908111443883
            ],
            [
              -80.2041139168595,
              25.776086404888286
            ],
            [
              -80.20410547884019,
              25.77626456449222
            ],
            [
              -80.20409221434319,
              25.77644248293767
            ],
            [
              -80.20407413133715,
              25.776620053051417
            ],
            [
              -80.20405124069339,
              25.7767971678696
            ],
            [
              -80.2040235561794,
              25.776973720702138
            ],
            [
              -80.20399109445063,
              25.777149605197042
            ],
            [
              -80.20395387504053,
              25.777324715404443
            ],
            [
              -80.20391192034872,
              25.777498945840428
            ],
            [
              -80.20386525562769,
              25.777672191550636
            ],
            [
              -80.20381390896753,
              25.777844348173417
            ],
            [
              -80.20375791127911,
              25.778015312002754
            ],
            [
              -80.20369729627548,
              25.778184980050753
            ],
            [
              -80.20363210045159,
              25.778353250109646
            ],
            [
              -80.20356236306239,
              25.77852002081341
            ],
            [
              -80.20348812609923,
              25.77868519169884
            ],
            [
              -80.20340943426454,
              25.77884866326606
            ],
            [
              -80.20336414994671,
              25.778936766173924
            ],
            [
              -80.20336211255777,
              25.77903745092283
            ],
            [
              -80.20335367308107,
              25.779215610380184
            ],
            [
              -80.20334040700966,
              25.779393528651436
            ],
            [
              -80.20332232231311,
              25.779571098563462
            ],
            [
              -80.20329942986378,
              25.779748213152526
            ],
            [
              -80.20327174343024,
              25.779924765728673
            ],
            [
              -80.20323927966909,
              25.780100649940074
            ],
            [
              -80.203202058115,
              25.780275759837036
            ],
            [
              -80.20316010116889,
              25.780449989935835
            ],
            [
              -80.20311343408459,
              25.780623235282288
            ],
            [
              -80.20306208495361,
              25.780795391514992
            ],
            [
              -80.20300608468831,
              25.780966354928154
            ],
            [
              -80.20294546700329,
              25.781136022534117
            ],
            [
              -80.20288026839512,
              25.781304292125395
            ],
            [
              -80.20281052812045,
              25.781471062336234
            ],
            [
              -80.2027362881723,
              25.781636232703736
            ],
            [
              -80.20265759325495,
              25.78179970372832
            ],
            [
              -80.20257449075692,
              25.781961376933744
            ],
            [
              -80.2024870307225,
              25.782121154926383
            ],
            [
              -80.20239526582166,
              25.782278941453963
            ],
            [
              -80.20229925131837,
              25.782434641463524
            ],
            [
              -80.20219904503726,
              25.782588161158724
            ],
            [
              -80.20209470732887,
              25.78273940805632
            ],
            [
              -80.20198630103334,
              25.782888291041942
            ],
            [
              -80.20187389144256,
              25.783034720424954
            ],
            [
              -80.2017575462608,
              25.78317860799256
            ],
            [
              -80.20163733556404,
              25.783319867062907
            ],
            [
              -80.20151333175774,
              25.78345841253733
            ],
            [
              -80.2013856095332,
              25.78359416095167
            ],
            [
              -80.20125424582265,
              25.783727030526542
            ],
            [
              -80.2011193197528,
              25.783856941216612
            ],
            [
              -80.20098091259733,
              25.78398381475889
            ],
            [
              -80.20083910772783,
              25.78410757471983
            ],
            [
              -80.2006939905636,
              25.784228146541402
            ],
            [
              -80.2005456485202,
              25.784345457586106
            ],
            [
              -80.20039417095683,
              25.784459437180615
            ],
            [
              -80.20023964912244,
              25.784570016658517
            ],
            [
              -80.20008217610072,
              25.78467712940157
            ],
            [
              -80.19992184675417,
              25.784780710879932
            ],
            [
              -80.19975875766673,
              25.784880698691033
            ],
            [
              -80.19959300708575,
              25.784977032597162
            ],
            [
              -80.19955097039174,
              25.785000165359268
            ],
            [
              -80.19962013650664,
              25.785083514175465
            ],
            [
              -80.19973454629739,
              25.785228669391586
            ],
            [
              -80.19984498720197,
              25.78537632281519
            ],
            [
              -80.1999513926863,
              25.785526385514142
            ],
            [
              -80.20005369864619,
              25.785678767104844
            ],
            [
              -80.20015184344585,
              25.785833375806675
            ],
            [
              -80.20024576795514,
              25.785990118497196
            ],
            [
              -80.2003354155851,
              25.786148900768307
            ],
            [
              -80.20042073232224,
              25.78630962698302
            ],
            [
              -80.20050166676097,
              25.78647220033309
            ],
            [
              -80.20057817013458,
              25.786636522897307
            ],
            [
              -80.20065019634478,
              25.78680249570046
            ],
            [
              -80.2007177019894,
              25.786970018772923
            ],
            [
              -80.20078064638861,
              25.787138991210902
            ],
            [
              -80.20083899160946,
              25.787309311237145
            ],
            [
              -80.20089270248877,
              25.78748087626229
            ],
            [
              -80.20094174665435,
              25.787653582946607
            ],
            [
              -80.20098609454458,
              25.787827327262246
            ],
            [
              -80.20102571942618,
              25.788002004555914
            ],
            [
              -80.20106059741049,
              25.788177509611884
            ],
            [
              -80.20109070746776,
              25.78835373671534
            ],
            [
              -80.20111603143998,
              25.788530579716102
            ],
            [
              -80.20113655405184,
              25.78870793209252
            ],
            [
              -80.20115226291993,
              25.788885687015668
            ],
            [
              -80.20116314856031,
              25.789063737413635
            ],
            [
              -80.20116920439429,
              25.78924197603609
            ],
            [
              -80.20117042675236,
              25.789420295518838
            ],
            [
              -80.20116681487652,
              25.789598588448484
            ],
            [
              -80.20115837092078,
              25.78977674742717
            ],
            [
              -80.2011450999499,
              25.78995466513725
            ],
            [
              -80.2011270099364,
              25.790132234405952
            ],
            [
              -80.2011041117558,
              25.790309348269915
            ],
            [
              -80.20107641918014,
              25.790485900039624
            ],
            [
              -80.20104394886971,
              25.790661783363735
            ],
            [
              -80.20100672036311,
              25.79083689229307
            ],
            [
              -80.20096475606543,
              25.791011121344493
            ],
            [
              -80.20091808123493,
              25.79118436556445
            ],
            [
              -80.20086672396776,
              25.791356520592227
            ],
            [
              -80.2008107151812,
              25.791527482722728
            ],
            [
              -80.20075008859493,
              25.79169714896909
            ],
            [
              -80.20068488071092,
              25.79186541712461
            ],
            [
              -80.20061513079135,
              25.79203218582443
            ],
            [
              -80.2005408808351,
              25.792197354606518
            ],
            [
              -80.20046217555245,
              25.792360823972285
            ],
            [
              -80.2003790623381,
              25.792522495446452
            ],
            [
              -80.20029159124289,
              25.79268227163645
            ],
            [
              -80.20019981494337,
              25.79284005629109
            ],
            [
              -80.2001037887104,
              25.792995754358525
            ],
            [
              -80.20000357037566,
              25.793149272043575
            ],
            [
              -80.19989922029698,
              25.793300516864207
            ],
            [
              -80.19979080132191,
              25.7934493977073
            ],
            [
              -80.19967837874997,
              25.79359582488351
            ],
            [
              -80.19956202029329,
              25.79373971018135
            ],
            [
              -80.1994417960358,
              25.793880966920323
            ],
            [
              -80.19931777839118,
              25.7940195100032
            ],
            [
              -80.199190042059,
              25.794155255967222
            ],
            [
              -80.19905866398003,
              25.79428812303449
            ],
            [
              -80.19892372328964,
              25.794418031161182
            ],
            [
              -80.19878530127029,
              25.794544902085836
            ],
            [
              -80.19864348130254,
              25.794668659376466
            ],
            [
              -80.1984983488148,
              25.79478922847668
            ],
            [
              -80.19834999123186,
              25.794906536750588
            ],
            [
              -80.19819849792228,
              25.79502051352655
            ],
            [
              -80.19804396014447,
              25.79513109013981
            ],
            [
              -80.19788647099179,
              25.795238199973873
            ],
            [
              -80.1977261253364,
              25.795341778500642
            ],
            [
              -80.19756301977212,
              25.795441763319324
            ],
            [
              -80.19739725255621,
              25.79553809419401
            ],
            [
              -80.19722892355021,
              25.795630713090016
            ],
            [
              -80.19705813415972,
              25.795719564208838
            ],
            [
              -80.19688498727328,
              25.795804594021796
            ],
            [
              -80.19670958720042,
              25.795885751302286
            ],
            [
              -80.19653203960874,
              25.79596298715667
            ],
            [
              -80.1963524514603,
              25.796036255053743
            ],
            [
              -80.19617093094705,
              25.796105510852744
            ],
            [
              -80.19598758742575,
              25.79617071283003
            ],
            [
              -80.19580253135196,
              25.79623182170416
            ],
            [
              -80.19561587421349,
              25.796288800659614
            ],
            [
              -80.19542772846324,
              25.796341615368956
            ],
            [
              -80.19523820745142,
              25.796390234013522
            ],
            [
              -80.19504742535715,
              25.796434627302634
            ],
            [
              -80.1948554971197,
              25.796474768491255
            ],
            [
              -80.19466253836923,
              25.79651063339602
            ],
            [
              -80.19446866535706,
              25.79654220040995
            ],
            [
              -80.19427399488556,
              25.79656945051534
            ],
            [
              -80.1940786442378,
              25.79659236729535
            ],
            [
              -80.19388273110685,
              25.796610936943797
            ],
            [
              -80.19368637352481,
              25.796625148273513
            ],
            [
              -80.19348968979163,
              25.796634992723106
            ],
            [
              -80.19329279840389,
              25.7966404643621
            ],
            [
              -80.19309581798329,
              25.796641559894503
            ],
            [
              -80.19289886720517,
              25.79663827866081
            ],
            [
              -80.19270206472699,
              25.796630622638396
            ],
            [
              -80.19250552911676,
              25.79661859644029
            ],
            [
              -80.19230937878162,
              25.796602207312443
            ],
            [
              -80.19211373189641,
              25.796581465129336
            ],
            [
              -80.1919187063325,
              25.796556382388026
            ],
            [
              -80.19172441958668,
              25.7965269742006
            ],
            [
              -80.19153098871031,
              25.796493258285082
            ],
            [
              -80.19133853023891,
              25.796455254954772
            ],
            [
              -80.19114716012173,
              25.79641298710593
            ],
            [
              -80.19095699365198,
              25.796366480204043
            ],
            [
              -80.19076814539726,
              25.796315762268453
            ],
            [
              -80.19070212967686,
              25.7962964248217
            ],
            [
              -80.19065523418637,
              25.796311908643045
            ],
            [
              -80.19046857465287,
              25.796368880929
            ],
            [
              -80.19028042668813,
              25.79642168892043
            ],
            [
              -80.19009090364369,
              25.796470300802746
            ],
            [
              -80.18990011969989,
              25.796514687289342
            ],
            [
              -80.18970818979712,
              25.79655482163926
            ],
            [
              -80.18951522956657,
              25.796590679673287
            ],
            [
              -80.1893213552604,
              25.796622239788558
            ],
            [
              -80.1891266836818,
              25.796649482971556
            ],
            [
              -80.18893133211454,
              25.796672392809587
            ],
            [
              -80.18873541825218,
              25.796690955500676
            ],
            [
              -80.18853906012727,
              25.796705159861833
            ],
            [
              -80.18834237604013,
              25.796714997335883
            ],
            [
              -80.18814548448752,
              25.79672046199654
            ],
            [
              -80.18794850409125,
              25.79672155055204
            ],
            [
              -80.18775155352667,
              25.796718262347063
            ],
            [
              -80.18755475145105,
              25.79671059936319
            ],
            [
              -80.18735821643222,
              25.796698566217664
            ],
            [
              -80.18716206687691,
              25.796682170160615
            ],
            [
              -80.18696642095955,
              25.7966614210707
            ],
            [
              -80.18677139655088,
              25.796636331449136
            ],
            [
              -80.18657711114699,
              25.796606916412166
            ],
            [
              -80.18638368179847,
              25.796573193681954
            ],
            [
              -80.18619122503988,
              25.79653518357588
            ],
            [
              -80.18599985681945,
              25.79649290899431
            ],
            [
              -80.18580969242923,
              25.796446395406786
            ],
            [
              -80.18562084643561,
              25.796395670836688
            ],
            [
              -80.1854334326102,
              25.79634076584429
            ],
            [
              -80.18524756386135,
              25.796281713508392
            ],
            [
              -80.18506335216603,
              25.79621854940638
            ],
            [
              -80.18488090850232,
              25.79615131159272
            ],
            [
              -80.1847003427826,
              25.796080040576097
            ],
            [
              -80.18452176378727,
              25.796004779294936
            ],
            [
              -80.18434527909913,
              25.795925573091548
            ],
            [
              -80.18417099503867,
              25.79584246968482
            ],
            [
              -80.18399901659984,
              25.795755519141366
            ],
            [
              -80.18382944738696,
              25.795664773845477
            ],
            [
              -80.18366238955208,
              25.795570288467424
            ],
            [
              -80.18349794373364,
              25.7954721199306
            ],
            [
              -80.18333620899561,
              25.79537032737713
            ],
            [
              -80.18317728276801,
              25.795264972132294
            ],
            [
              -80.18302126078805,
              25.79515611766752
            ],
            [
              -80.18286823704247,
              25.795043829562157
            ],
            [
              -80.182718303711,
              25.7949281754639
            ],
            [
              -80.18257155111073,
              25.7948092250481
            ],
            [
              -80.18242806764174,
              25.794687049975696
            ],
            [
              -80.18228793973388,
              25.79456172385005
            ],
            [
              -80.18215125179462,
              25.794433322172612
            ],
            [
              -80.18201808615831,
              25.794301922297386
            ],
            [
              -80.18188852303646,
              25.79416760338433
            ],
            [
              -80.1817626404696,
              25.79403044635163
            ],
            [
              -80.18164051428009,
              25.793890533826957
            ],
            [
              -80.18152221802663,
              25.79374795009767
            ],
            [
              -80.18140782295983,
              25.793602781060017
            ],
            [
              -80.18129739797939,
              25.793455114167344
            ],
            [
              -80.18119100959262,
              25.79330503837745
            ],
            [
              -80.1810887218743,
              25.793152644098946
            ],
            [
              -80.18099059642823,
              25.792998023136768
            ],
            [
              -80.18089669235009,
              25.792841268636913
            ],
            [
              -80.18080706619185,
              25.792682475030208
            ],
            [
              -80.18072177192778,
              25.79252173797552
            ],
            [
              -80.18064086092191,
              25.79235915430205
            ],
            [
              -80.18056438189723,
              25.792194821951018
            ],
            [
              -80.18049238090627,
              25.79202883991663
            ],
            [
              -80.18042490130344,
              25.791861308186448
            ],
            [
              -80.18036198371894,
              25.791692327681133
            ],
            [
              -80.18030366603436,
              25.791522000193655
            ],
            [
              -80.18024998335987,
              25.791350428327956
            ],
            [
              -80.18020096801312,
              25.79117771543712
            ],
            [
              -80.18015664949985,
              25.791003965561135
            ],
            [
              -80.18011705449614,
              25.7908292833642
            ],
            [
              -80.18008220683232,
              25.790653774071643
            ],
            [
              -80.18005212747883,
              25.790477543406592
            ],
            [
              -80.18002683453348,
              25.7903006975262
            ],
            [
              -80.18000634321066,
              25.790123342957777
            ],
            [
              -80.17999066583224,
              25.789945586534568
            ],
            [
              -80.17997981182017,
              25.789767535331414
            ],
            [
              -80.17997378769091,
              25.789589296600223
            ],
            [
              -80.17997259705145,
              25.789410977705412
            ],
            [
              -80.17997624059731,
              25.789232686059215
            ],
            [
              -80.17998471611209,
              25.789054529056973
            ],
            [
              -80.17999801846891,
              25.78887661401243
            ],
            [
              -80.18001613963352,
              25.788699048093154
            ],
            [
              -80.18003906866919,
              25.788521938255904
            ],
            [
              -80.18006679174333,
              25.788345391182297
            ],
            [
              -80.18009929213598,
              25.788169513214488
            ],
            [
              -80.18013655024978,
              25.787994410291144
            ],
            [
              -80.1801785436219,
              25.787820187883643
            ],
            [
              -80.18018335281937,
              25.787802349117744
            ],
            [
              -80.18013720009863,
              25.787639718408276
            ],
            [
              -80.18009288284154,
              25.7874659684634
            ],
            [
              -80.18005328895339,
              25.7872912861958
            ],
            [
              -80.1800184422639,
              25.78711577683086
            ],
            [
              -80.17998836374286,
              25.786939546091737
            ],
            [
              -80.17996307148765,
              25.78676270013565
            ],
            [
              -80.17994258071221,
              25.786585345489936
            ],
            [
              -80.17992690373809,
              25.786407588987878
            ],
            [
              -80.17991604998701,
              25.78622953770438
            ],
            [
              -80.17991002597526,
              25.7860512988914
            ],
            [
              -80.17990883530977,
              25.78587297991341
            ],
            [
              -80.17991247868609,
              25.78569468818268
            ],
            [
              -80.17992095388793,
              25.785516531094594
            ],
            [
              -80.17993425578857,
              25.785338615962967
            ],
            [
              -80.17995237635407,
              25.785161049955402
            ],
            [
              -80.17997530464805,
              25.784983940028734
            ],
            [
              -80.18000302683838,
              25.784807392864618
            ],
            [
              -80.18003552620563,
              25.784631514805262
            ],
            [
              -80.18007278315307,
              25.784456411789396
            ],
            [
              -80.18011477521857,
              25.784282189288454
            ],
            [
              -80.18016147708823,
              25.784108952243052
            ],
            [
              -80.18021286061163,
              25.783936804999797
            ],
            [
              -80.1802688948188,
              25.783765851248425
            ],
            [
              -80.18032954593899,
              25.78359619395939
            ],
            [
              -80.18039477742096,
              25.783427935321793
            ],
            [
              -80.1804645499552,
              25.78326117668193
            ],
            [
              -80.18053882149748,
              25.783096018482144
            ],
            [
              -80.18061754729428,
              25.782932560200475
            ],
            [
              -80.18070067990979,
              25.782770900290622
            ],
            [
              -80.18078816925454,
              25.782611136122753
            ],
            [
              -80.18087996261555,
              25.78245336392482
            ],
            [
              -80.18097600468815,
              25.78229767872465
            ],
            [
              -80.18107623760932,
              25.782144174292675
            ],
            [
              -80.18118060099256,
              25.781992943085516
            ],
            [
              -80.18128903196428,
              25.7818440761903
            ],
            [
              -80.18140146520172,
              25.78169766326979
            ],
            [
              -80.18151783297229,
              25.781553792508433
            ],
            [
              -80.18163806517441,
              25.781412550559214
            ],
            [
              -80.18176208937975,
              25.78127402249155
            ],
            [
              -80.18188983087684,
              25.781138291740007
            ],
            [
              -80.18202121271611,
              25.781005440054106
            ],
            [
              -80.18215615575626,
              25.780875547449085
            ],
            [
              -80.18229457871189,
              25.78074869215772
            ],
            [
              -80.18243639820251,
              25.780624950583235
            ],
            [
              -80.18254244445153,
              25.780536862869443
            ],
            [
              -80.1825421916562,
              25.780499133845737
            ],
            [
              -80.18254311487769,
              25.78045390137791
            ],
            [
              -80.18248217122417,
              25.78032294327369
            ],
            [
              -80.18241017421597,
              25.780156962029505
            ],
            [
              -80.18234269811792,
              25.779989431015917
            ],
            [
              -80.18227978355809,
              25.779820451153135
            ],
            [
              -80.18222146841624,
              25.77965012423375
            ],
            [
              -80.18216778780106,
              25.779478552861367
            ],
            [
              -80.18211877402895,
              25.77930584038876
            ],
            [
              -80.18207445660472,
              25.77913209085567
            ],
            [
              -80.18203486220378,
              25.77895740892608
            ],
            [
              -80.18200001465617,
              25.778781899825166
            ],
            [
              -80.18196993493221,
              25.77860566927592
            ],
            [
              -80.18195463846268,
              25.778498721512925
            ],
            [
              -80.18189728755091,
              25.77845222903112
            ],
            [
              -80.1817538239818,
              25.778330053515074
            ],
            [
              -80.18161371551784,
              25.778204726943724
            ],
            [
              -80.18147704655479,
              25.77807632481878
            ],
            [
              -80.18134389941555,
              25.777944924494506
            ],
            [
              -80.18121435430055,
              25.777810605131112
            ],
            [
              -80.18108848923941,
              25.77767344764707
            ],
            [
              -80.180966380044,
              25.777533534670297
            ],
            [
              -80.18084810026275,
              25.77739095048843
            ],
            [
              -80.18073372113638,
              25.777245780997973
            ],
            [
              -80.18062331155497,
              25.777098113652542
            ],
            [
              -80.18051693801655,
              25.776948037410204
            ],
            [
              -80.180414664587,
              25.77679564267984
            ],
            [
              -80.18031655286154,
              25.77664102126664
            ],
            [
              -80.18022266192752,
              25.776484266316867
            ],
            [
              -80.18013304832904,
              25.77632547226163
            ],
            [
              -80.18004776603281,
              25.776164734760044
            ],
            [
              -80.1799668663957,
              25.776002150641574
            ],
            [
              -80.17989039813382,
              25.775837817847712
            ],
            [
              -80.17981840729324,
              25.775671835372915
            ],
            [
              -80.17975093722225,
              25.775504303205008
            ],
            [
              -80.17968802854537,
              25.775335322264908
            ],
            [
              -80.17962971913882,
              25.77516499434585
            ],
            [
              -80.17957604410778,
              25.77499342205203
            ],
            [
              -80.17952703576532,
              25.774820708736783
            ],
            [
              -80.17948272361299,
              25.77464695844036
            ],
            [
              -80.17944313432301,
              25.774472275827186
            ],
            [
              -80.17940829172237,
              25.774296766122855
            ],
            [
              -80.1793782167784,
              25.774120535050727
            ],
            [
              -80.17935292758631,
              25.773943688768217
            ],
            [
              -80.17933243935823,
              25.773766333802858
            ],
            [
              -80.1793167644142,
              25.773588576988136
            ],
            [
              -80.17930591217471,
              25.77341052539912
            ],
            [
              -80.17929988915516,
              25.773232286287968
            ],
            [
              -80.17929869896192,
              25.773053967019315
            ],
            [
              -80.17930234229023,
              25.772875675005608
            ],
            [
              -80.17931081692387,
              25.77269751764242
            ],
            [
              -80.17932411773648,
              25.772519602243722
            ],
            [
              -80.17934223669478,
              25.772342035977267
            ],
            [
              -80.17936516286336,
              25.77216492580006
            ],
            [
              -80.17939288241143,
              25.77198837839391
            ],
            [
              -80.17942537862112,
              25.771812500101152
            ],
            [
              -80.17946263189762,
              25.771637396860672
            ],
            [
              -80.17950461978106,
              25.771463174144046
            ],
            [
              -80.17955131696004,
              25.771289936892014
            ],
            [
              -80.17960269528696,
              25.7711177894513
            ],
            [
              -80.17965872379506,
              25.77094683551179
            ],
            [
              -80.17971936871696,
              25.770777178044018
            ],
            [
              -80.17978459350525,
              25.77060891923723
            ],
            [
              -80.17985435885439,
              25.770442160437796
            ],
            [
              -80.1799286227245,
              25.770277002088182
            ],
            [
              -80.18000734036671,
              25.770113543666508
            ],
            [
              -80.18009046435016,
              25.76995188362657
            ],
            [
              -80.18017794459054,
              25.769792119338618
            ],
            [
              -80.18026972838038,
              25.769634347030667
            ],
            [
              -80.18036576042081,
              25.76947866173063
            ],
            [
              -80.18046598285483,
              25.76932515720899
            ],
            [
              -80.18057033530226,
              25.76917392592244
            ],
            [
              -80.1806787548961,
              25.769025058958157
            ],
            [
              -80.18079117632051,
              25.76887864597895
            ],
            [
              -80.18090753184995,
              25.768734775169293
            ],
            [
              -80.18102775139027,
              25.76859353318222
            ],
            [
              -80.18115176252073,
              25.76845500508717
            ],
            [
              -80.18127949053776,
              25.768319274318742
            ],
            [
              -80.18141085849992,
              25.768186422626453
            ],
            [
              -80.18154578727425,
              25.768056530025568
            ],
            [
              -80.18168419558395,
              25.76792967474886
            ],
            [
              -80.18182600005737,
              25.76780593319954
            ],
            [
              -80.18197111527817,
              25.767685379905295
            ],
            [
              -80.1821194538368,
              25.767568087473336
            ],
            [
              -80.18227092638317,
              25.767454126546756
            ],
            [
              -80.18242544168041,
              25.76734356576197
            ],
            [
              -80.18258290665985,
              25.767236471707395
            ],
            [
              -80.18274322647709,
              25.767132908883365
            ],
            [
              -80.18290630456906,
              25.767032939663313
            ],
            [
              -80.18307204271217,
              25.766936624256182
            ],
            [
              -80.18324034108156,
              25.76684402067023
            ],
            [
              -80.18341109831104,
              25.766755184678075
            ],
            [
              -80.18358421155426,
              25.766670169783122
            ],
            [
              -80.18375957654659,
              25.766589027187372
            ],
            [
              -80.18393708766787,
              25.76651180576057
            ],
            [
              -80.18411269333588,
              25.76644016137839
            ],
            [
              -80.18412250217135,
              25.76630887497396
            ],
            [
              -80.18414061278979,
              25.76613130776418
            ],
            [
              -80.18416353039211,
              25.765954196479903
            ],
            [
              -80.18419124115265,
              25.765777647803624
            ],
            [
              -80.18422372835887,
              25.765601768078458
            ],
            [
              -80.18426097242137,
              25.76542666324413
            ],
            [
              -80.18430295088585,
              25.7652524387732
            ],
            [
              -80.18434963844659,
              25.765079199607467
            ],
            [
              -80.18440100696179,
              25.764907050094813
            ],
            [
              -80.18445702547055,
              25.764736093926363
            ],
            [
              -80.18451766021157,
              25.764566434074016
            ],
            [
              -80.18455258520812,
              25.764476323304795
            ],
            [
              -80.18454352833415,
              25.764327829351323
            ],
            [
              -80.18453749754154,
              25.764149590058338
            ],
            [
              -80.18453629920887,
              25.763971270424815
            ],
            [
              -80.18453993403631,
              25.76379297786343
            ],
            [
              -80.18454839981275,
              25.763614819770083
            ],
            [
              -80.1845616914172,
              25.763436903459198
            ],
            [
              -80.18457980082191,
              25.763259336099075
            ],
            [
              -80.18460271709723,
              25.76308222464738
            ],
            [
              -80.18463042641838,
              25.762905675786694
            ],
            [
              -80.1846629120736,
              25.762729795860256
            ],
            [
              -80.1847001544745,
              25.76255469080792
            ],
            [
              -80.18474213116774,
              25.76238046610235
            ],
            [
              -80.18478881684868,
              25.762207226685504
            ],
            [
              -80.18484018337665,
              25.76203507690542
            ],
            [
              -80.18489619979198,
              25.76186412045339
            ],
            [
              -80.1849568323346,
              25.761694460301474
            ],
            [
              -80.18497882531939,
              25.761637713614892
            ],
            [
              -80.18496718591246,
              25.7615790921661
            ],
            [
              -80.18493710537479,
              25.76140286181676
            ],
            [
              -80.18491181005376,
              25.76122601606012
            ],
            [
              -80.18489131516525,
              25.761048661423395
            ],
            [
              -80.18487563303329,
              25.76087090473986
            ],
            [
              -80.18486477308272,
              25.76069285308453
            ],
            [
              -80.18485874183361,
              25.7605146137096
            ],
            [
              -80.18485754289729,
              25.760336293979858
            ],
            [
              -80.18486117697431,
              25.760158001308042
            ],
            [
              -80.184869641854,
              25.75997984309013
            ],
            [
              -80.1848829324159,
              25.75980192664061
            ],
            [
              -80.18490104063292,
              25.759624359127866
            ]
          ]
        ]
      },
      "properties": {
        "network_half_mile_union_area_m2": 9245377.943285,
        "sum_of_21_station_discs_m2": 42713321.33872,
        "area_duplication_ratio": 4.619965,
        "display": {
          "union": {
            "sq_ft": 99516420,
            "acres": 2284.58,
            "sq_mi": 3.57
          },
          "sum_of_discs": {
            "sq_ft": 459762364,
            "acres": 10554.69,
            "sq_mi": 16.492
          }
        },
        "note": "the network union is computed directly as a geometric union; it cannot be derived from the sum of discs minus pairwise intersections because three or more discs overlap (inclusion-exclusion truncated at pairs goes negative on this data)",
        "catchment_type": "euclidean_distance_band_from_gtfs_reference_point",
        "is_validated_walk_catchment": false,
        "demand_origin_or_destination": "TO_BE_EVALUATED",
        "is_population_allocation_weight": false,
        "radius_ft": 2640
      }
    }
  ]
}
